{
  "type": "FeatureCollection",
  "features": [
    {
      "type": "Feature",
      "geometry": {
        "type": "Point",
        "coordinates": [
          74.78988543773418,
          13.343098112601206
        ]
      },
      "properties": {
        "id": "0db3d452-fff0-49cd-8ca9-0f13bf02ce10",
        "name": "Substation 1",
        "node_type": "power_substation",
        "capacity": 100.0,
        "current_load": 85.1182271277307,
        "failure_threshold": 1.0,
        "population_served": 13363,
        "status": "operational"
      }
    },
    {
      "type": "Feature",
      "geometry": {
        "type": "Point",
        "coordinates": [
          74.77787875855164,
          13.364845304671256
        ]
      },
      "properties": {
        "id": "f0be4cd9-4156-4b19-b08f-60e275a55c96",
        "name": "Substation 2",
        "node_type": "power_substation",
        "capacity": 100.0,
        "current_load": 86.21484104965322,
        "failure_threshold": 1.0,
        "population_served": 23782,
        "status": "operational"
      }
    },
    {
      "type": "Feature",
      "geometry": {
        "type": "Point",
        "coordinates": [
          74.78449998839496,
          13.333091079411078
        ]
      },
      "properties": {
        "id": "d0c4ba6a-81f5-4cca-bd2a-adbbac920c92",
        "name": "Substation 3",
        "node_type": "power_substation",
        "capacity": 100.0,
        "current_load": 87.30538992409204,
        "failure_threshold": 1.0,
        "population_served": 26085,
        "status": "operational"
      }
    },
    {
      "type": "Feature",
      "geometry": {
        "type": "Point",
        "coordinates": [
          74.78058670931742,
          13.335166306476188
        ]
      },
      "properties": {
        "id": "cb9eef78-b35c-4ec2-ae7e-f00b373ab8ec",
        "name": "Substation 4",
        "node_type": "power_substation",
        "capacity": 100.0,
        "current_load": 82.39934079367927,
        "failure_threshold": 1.0,
        "population_served": 12645,
        "status": "operational"
      }
    },
    {
      "type": "Feature",
      "geometry": {
        "type": "Point",
        "coordinates": [
          74.78361766183981,
          13.352710619969457
        ]
      },
      "properties": {
        "id": "5da9e31e-a915-4cf1-8132-ed4f74c99564",
        "name": "Substation 5",
        "node_type": "power_substation",
        "capacity": 100.0,
        "current_load": 84.49654832567936,
        "failure_threshold": 1.0,
        "population_served": 26065,
        "status": "operational"
      }
    },
    {
      "type": "Feature",
      "geometry": {
        "type": "Point",
        "coordinates": [
          74.80677151861238,
          13.354077112396281
        ]
      },
      "properties": {
        "id": "2082fddd-06b9-4109-a994-36d75f31930e",
        "name": "Substation 6",
        "node_type": "power_substation",
        "capacity": 100.0,
        "current_load": 82.51513103750779,
        "failure_threshold": 1.0,
        "population_served": 21686,
        "status": "operational"
      }
    },
    {
      "type": "Feature",
      "geometry": {
        "type": "Point",
        "coordinates": [
          74.78995928679664,
          13.367945831186606
        ]
      },
      "properties": {
        "id": "3d7e870c-98b1-4740-ac5d-abc3c47bef0c",
        "name": "Substation 7",
        "node_type": "power_substation",
        "capacity": 100.0,
        "current_load": 85.13587546629589,
        "failure_threshold": 1.0,
        "population_served": 12500,
        "status": "operational"
      }
    },
    {
      "type": "Feature",
      "geometry": {
        "type": "Point",
        "coordinates": [
          74.79953679768198,
          13.36437880371326
        ]
      },
      "properties": {
        "id": "2e01fc85-6b31-401b-b8fd-ce4e9522b9f7",
        "name": "Substation 8",
        "node_type": "power_substation",
        "capacity": 100.0,
        "current_load": 85.38064720422938,
        "failure_threshold": 1.0,
        "population_served": 19424,
        "status": "operational"
      }
    },
    {
      "type": "Feature",
      "geometry": {
        "type": "Point",
        "coordinates": [
          74.78005022748715,
          13.359653239838163
        ]
      },
      "properties": {
        "id": "92ea9738-57b0-4b78-880e-0a95dc643c15",
        "name": "Water Pump 1",
        "node_type": "water_station",
        "capacity": 80.0,
        "current_load": 76.0,
        "failure_threshold": 1.0,
        "population_served": 24460,
        "status": "operational"
      }
    },
    {
      "type": "Feature",
      "geometry": {
        "type": "Point",
        "coordinates": [
          74.78046183243129,
          13.356409445124905
        ]
      },
      "properties": {
        "id": "96aca836-d641-4a5a-b862-16f4ae7176d2",
        "name": "Water Pump 2",
        "node_type": "water_station",
        "capacity": 80.0,
        "current_load": 75.53266901860485,
        "failure_threshold": 1.0,
        "population_served": 22554,
        "status": "operational"
      }
    },
    {
      "type": "Feature",
      "geometry": {
        "type": "Point",
        "coordinates": [
          74.79810543197169,
          13.339545481790413
        ]
      },
      "properties": {
        "id": "20462406-e2e8-465f-b617-79b04ea6990d",
        "name": "Water Pump 3",
        "node_type": "water_station",
        "capacity": 80.0,
        "current_load": 78.78576724467229,
        "failure_threshold": 1.0,
        "population_served": 23166,
        "status": "operational"
      }
    },
    {
      "type": "Feature",
      "geometry": {
        "type": "Point",
        "coordinates": [
          74.79882977509446,
          13.33338152759955
        ]
      },
      "properties": {
        "id": "f011af57-9439-4006-aca9-99c097d80488",
        "name": "Water Pump 4",
        "node_type": "water_station",
        "capacity": 80.0,
        "current_load": 74.0,
        "failure_threshold": 1.0,
        "population_served": 24833,
        "status": "operational"
      }
    },
    {
      "type": "Feature",
      "geometry": {
        "type": "Point",
        "coordinates": [
          74.80173328351843,
          13.33498991383667
        ]
      },
      "properties": {
        "id": "d2183745-bd43-4c9e-8ef2-65bad0e4796d",
        "name": "Water Pump 5",
        "node_type": "water_station",
        "capacity": 80.0,
        "current_load": 77.86979070961216,
        "failure_threshold": 1.0,
        "population_served": 21880,
        "status": "operational"
      }
    },
    {
      "type": "Feature",
      "geometry": {
        "type": "Point",
        "coordinates": [
          74.788246084714,
          13.364926815819143
        ]
      },
      "properties": {
        "id": "83495d12-dec3-46d3-9aac-e4b608ba2d3d",
        "name": "Water Pump 6",
        "node_type": "water_station",
        "capacity": 80.0,
        "current_load": 77.69424127615845,
        "failure_threshold": 1.0,
        "population_served": 15415,
        "status": "operational"
      }
    },
    {
      "type": "Feature",
      "geometry": {
        "type": "Point",
        "coordinates": [
          74.77414751574645,
          13.351506269601193
        ]
      },
      "properties": {
        "id": "8631db69-8608-4e0a-a4f0-a56208c5f75a",
        "name": "Hospital 1",
        "node_type": "hospital",
        "capacity": 60.0,
        "current_load": 56.36264399422522,
        "failure_threshold": 1.0,
        "population_served": 4943,
        "status": "operational"
      }
    },
    {
      "type": "Feature",
      "geometry": {
        "type": "Point",
        "coordinates": [
          74.77849457181203,
          13.362719950454567
        ]
      },
      "properties": {
        "id": "bfc80aaa-5ae7-47c9-8353-ecf2044164d4",
        "name": "Hospital 2",
        "node_type": "hospital",
        "capacity": 60.0,
        "current_load": 42.05152760703974,
        "failure_threshold": 1.0,
        "population_served": 3548,
        "status": "operational"
      }
    },
    {
      "type": "Feature",
      "geometry": {
        "type": "Point",
        "coordinates": [
          74.80073490090314,
          13.358199967105604
        ]
      },
      "properties": {
        "id": "227e18da-ab41-4c33-933b-7453f9569d70",
        "name": "Hospital 3",
        "node_type": "hospital",
        "capacity": 60.0,
        "current_load": 57.68612298800457,
        "failure_threshold": 1.0,
        "population_served": 4480,
        "status": "operational"
      }
    },
    {
      "type": "Feature",
      "geometry": {
        "type": "Point",
        "coordinates": [
          74.77587746258162,
          13.33682938779862
        ]
      },
      "properties": {
        "id": "171724f2-2f2e-4d64-b476-604c1316c693",
        "name": "Hospital 4",
        "node_type": "hospital",
        "capacity": 60.0,
        "current_load": 49.13592691336619,
        "failure_threshold": 1.0,
        "population_served": 2922,
        "status": "operational"
      }
    },
    {
      "type": "Feature",
      "geometry": {
        "type": "Point",
        "coordinates": [
          74.78554464062665,
          13.366364736013344
        ]
      },
      "properties": {
        "id": "ef024f7d-7893-45cf-9f23-d5f8bd58ad20",
        "name": "Cell Tower 1",
        "node_type": "telecom_tower",
        "capacity": 40.0,
        "current_load": 32.0,
        "failure_threshold": 1.0,
        "population_served": 9112,
        "status": "operational"
      }
    },
    {
      "type": "Feature",
      "geometry": {
        "type": "Point",
        "coordinates": [
          74.77624310196246,
          13.342770819033177
        ]
      },
      "properties": {
        "id": "9ed99314-ff5f-493c-a50d-1a21ecf472a3",
        "name": "Cell Tower 2",
        "node_type": "telecom_tower",
        "capacity": 40.0,
        "current_load": 30.0,
        "failure_threshold": 1.0,
        "population_served": 13223,
        "status": "operational"
      }
    },
    {
      "type": "Feature",
      "geometry": {
        "type": "Point",
        "coordinates": [
          74.77348471922755,
          13.355650933779007
        ]
      },
      "properties": {
        "id": "8f2a3c9a-0dc5-44f0-bfe3-c751cd751a30",
        "name": "Junction 1",
        "node_type": "road_junction",
        "capacity": 200.0,
        "current_load": 58.038960908810324,
        "failure_threshold": 1.0,
        "population_served": 0,
        "status": "operational"
      }
    },
    {
      "type": "Feature",
      "geometry": {
        "type": "Point",
        "coordinates": [
          74.78177150841383,
          13.354427111600234
        ]
      },
      "properties": {
        "id": "e00856c7-3305-49c8-b646-b03860ea8a6d",
        "name": "Junction 2",
        "node_type": "road_junction",
        "capacity": 200.0,
        "current_load": 50.18553779022534,
        "failure_threshold": 1.0,
        "population_served": 0,
        "status": "operational"
      }
    },
    {
      "type": "Feature",
      "geometry": {
        "type": "Point",
        "coordinates": [
          74.78451177141343,
          13.35571114522047
        ]
      },
      "properties": {
        "id": "f71856f3-252a-44ed-8fe5-6d90c5a6703f",
        "name": "Junction 3",
        "node_type": "road_junction",
        "capacity": 200.0,
        "current_load": 69.21342424425892,
        "failure_threshold": 1.0,
        "population_served": 0,
        "status": "operational"
      }
    },
    {
      "type": "Feature",
      "geometry": {
        "type": "Point",
        "coordinates": [
          74.78166078452846,
          13.366073010448094
        ]
      },
      "properties": {
        "id": "375fe2e7-6443-4f05-89ed-38d86b037069",
        "name": "Junction 4",
        "node_type": "road_junction",
        "capacity": 200.0,
        "current_load": 57.19871728442754,
        "failure_threshold": 1.0,
        "population_served": 0,
        "status": "operational"
      }
    },
    {
      "type": "Feature",
      "geometry": {
        "type": "Point",
        "coordinates": [
          74.78121527869999,
          13.346847483978328
        ]
      },
      "properties": {
        "id": "d5c5035e-2db9-43ce-ad5f-90d1e5f92e4e",
        "name": "Junction 5",
        "node_type": "road_junction",
        "capacity": 200.0,
        "current_load": 59.33312215078872,
        "failure_threshold": 1.0,
        "population_served": 0,
        "status": "operational"
      }
    },
    {
      "type": "Feature",
      "geometry": {
        "type": "Point",
        "coordinates": [
          74.79032843265983,
          13.332490474079293
        ]
      },
      "properties": {
        "id": "16de6009-30b4-47da-bd4a-d757cfa037ef",
        "name": "Junction 6",
        "node_type": "road_junction",
        "capacity": 200.0,
        "current_load": 58.68458979693621,
        "failure_threshold": 1.0,
        "population_served": 0,
        "status": "operational"
      }
    },
    {
      "type": "Feature",
      "geometry": {
        "type": "Point",
        "coordinates": [
          74.79358766682955,
          13.365933747849436
        ]
      },
      "properties": {
        "id": "49498167-a02a-4644-90ec-b0d1a848e2eb",
        "name": "Junction 7",
        "node_type": "road_junction",
        "capacity": 200.0,
        "current_load": 55.80138315508621,
        "failure_threshold": 1.0,
        "population_served": 0,
        "status": "operational"
      }
    },
    {
      "type": "Feature",
      "geometry": {
        "type": "Point",
        "coordinates": [
          74.77685449928336,
          13.35513066640757
        ]
      },
      "properties": {
        "id": "052ffa0b-a0ee-4932-b782-a0725411cf68",
        "name": "Junction 8",
        "node_type": "road_junction",
        "capacity": 200.0,
        "current_load": 58.76902083893614,
        "failure_threshold": 1.0,
        "population_served": 0,
        "status": "operational"
      }
    },
    {
      "type": "Feature",
      "geometry": {
        "type": "Point",
        "coordinates": [
          74.78581983928245,
          13.366454731249535
        ]
      },
      "properties": {
        "id": "79e99ad0-3f93-4bcb-a987-1da711fdccfc",
        "name": "Junction 9",
        "node_type": "road_junction",
        "capacity": 200.0,
        "current_load": 55.17662308408628,
        "failure_threshold": 1.0,
        "population_served": 0,
        "status": "operational"
      }
    },
    {
      "type": "Feature",
      "geometry": {
        "type": "Point",
        "coordinates": [
          74.80840608905712,
          13.35784226100698
        ]
      },
      "properties": {
        "id": "20794b31-8b2b-449d-b65f-b7f445d7b643",
        "name": "Junction 10",
        "node_type": "road_junction",
        "capacity": 200.0,
        "current_load": 58.51553080118295,
        "failure_threshold": 1.0,
        "population_served": 0,
        "status": "operational"
      }
    },
    {
      "type": "Feature",
      "geometry": {
        "type": "Point",
        "coordinates": [
          74.78341855395932,
          13.365871401191857
        ]
      },
      "properties": {
        "id": "d2968c43-158a-4f0f-acff-1a77dfb3a2f1",
        "name": "Junction 11",
        "node_type": "road_junction",
        "capacity": 200.0,
        "current_load": 62.97096479929479,
        "failure_threshold": 1.0,
        "population_served": 0,
        "status": "operational"
      }
    },
    {
      "type": "Feature",
      "geometry": {
        "type": "Point",
        "coordinates": [
          74.80453801661614,
          13.336976896243806
        ]
      },
      "properties": {
        "id": "fca9bd0f-1daa-42e5-b07c-209ac9dee7d7",
        "name": "Junction 12",
        "node_type": "road_junction",
        "capacity": 200.0,
        "current_load": 53.89173220806588,
        "failure_threshold": 1.0,
        "population_served": 0,
        "status": "operational"
      }
    },
    {
      "type": "Feature",
      "geometry": {
        "type": "Point",
        "coordinates": [
          74.80545897425677,
          13.361220209820283
        ]
      },
      "properties": {
        "id": "f3e770a4-e8c5-4b4a-9f1b-ed88e1224de0",
        "name": "Junction 13",
        "node_type": "road_junction",
        "capacity": 200.0,
        "current_load": 68.32961395591983,
        "failure_threshold": 1.0,
        "population_served": 0,
        "status": "operational"
      }
    },
    {
      "type": "Feature",
      "geometry": {
        "type": "Point",
        "coordinates": [
          74.79192319182314,
          13.344210988697526
        ]
      },
      "properties": {
        "id": "8b778722-a65e-4101-bcc1-0b90396b0dc3",
        "name": "Junction 14",
        "node_type": "road_junction",
        "capacity": 200.0,
        "current_load": 60.93181072654997,
        "failure_threshold": 1.0,
        "population_served": 0,
        "status": "operational"
      }
    },
    {
      "type": "Feature",
      "geometry": {
        "type": "Point",
        "coordinates": [
          74.77774583419844,
          13.335916735602693
        ]
      },
      "properties": {
        "id": "41563cfc-fbfc-4b24-90d5-a46c54b75ab4",
        "name": "Junction 15",
        "node_type": "road_junction",
        "capacity": 200.0,
        "current_load": 53.97583398935759,
        "failure_threshold": 1.0,
        "population_served": 0,
        "status": "operational"
      }
    },
    {
      "type": "Feature",
      "geometry": {
        "type": "Point",
        "coordinates": [
          74.79202144599957,
          13.356679911703308
        ]
      },
      "properties": {
        "id": "4f004ff2-7819-4806-ba10-69bec00c5187",
        "name": "Junction 16",
        "node_type": "road_junction",
        "capacity": 200.0,
        "current_load": 60.92897235697014,
        "failure_threshold": 1.0,
        "population_served": 0,
        "status": "operational"
      }
    },
    {
      "type": "Feature",
      "geometry": {
        "type": "Point",
        "coordinates": [
          74.77913030087943,
          13.350498715294986
        ]
      },
      "properties": {
        "id": "f8791ef2-994a-4ad5-9a85-d71acc4fb01f",
        "name": "Junction 17",
        "node_type": "road_junction",
        "capacity": 200.0,
        "current_load": 57.145012640172375,
        "failure_threshold": 1.0,
        "population_served": 0,
        "status": "operational"
      }
    },
    {
      "type": "Feature",
      "geometry": {
        "type": "Point",
        "coordinates": [
          74.78870723442584,
          13.349267488784383
        ]
      },
      "properties": {
        "id": "b505eb20-3d1e-40c0-99b0-e81eb81f7c5d",
        "name": "Junction 18",
        "node_type": "road_junction",
        "capacity": 200.0,
        "current_load": 61.48567181371567,
        "failure_threshold": 1.0,
        "population_served": 0,
        "status": "operational"
      }
    },
    {
      "type": "Feature",
      "geometry": {
        "type": "Point",
        "coordinates": [
          74.77448455202841,
          13.362334214046857
        ]
      },
      "properties": {
        "id": "93010b8c-47ce-4598-af5b-103fc6d45acb",
        "name": "Junction 19",
        "node_type": "road_junction",
        "capacity": 200.0,
        "current_load": 63.79513229734788,
        "failure_threshold": 1.0,
        "population_served": 0,
        "status": "operational"
      }
    },
    {
      "type": "Feature",
      "geometry": {
        "type": "Point",
        "coordinates": [
          74.78422866939636,
          13.331431374485248
        ]
      },
      "properties": {
        "id": "071f7036-0958-4228-957a-a5f5122cb8e4",
        "name": "Junction 20",
        "node_type": "road_junction",
        "capacity": 200.0,
        "current_load": 59.459670571675076,
        "failure_threshold": 1.0,
        "population_served": 0,
        "status": "operational"
      }
    },
    {
      "type": "Feature",
      "geometry": {
        "type": "Point",
        "coordinates": [
          74.7856010860127,
          13.344089408780121
        ]
      },
      "properties": {
        "id": "38673290-5e47-4a01-a355-c1276a20e296",
        "name": "Junction 21",
        "node_type": "road_junction",
        "capacity": 200.0,
        "current_load": 63.85092847119591,
        "failure_threshold": 1.0,
        "population_served": 0,
        "status": "operational"
      }
    },
    {
      "type": "Feature",
      "geometry": {
        "type": "Point",
        "coordinates": [
          74.79559238746717,
          13.340624238911207
        ]
      },
      "properties": {
        "id": "c78b6c81-d4c3-47e2-844d-95b859678a9d",
        "name": "Junction 22",
        "node_type": "road_junction",
        "capacity": 200.0,
        "current_load": 53.20243029818772,
        "failure_threshold": 1.0,
        "population_served": 0,
        "status": "operational"
      }
    },
    {
      "type": "Feature",
      "geometry": {
        "type": "Point",
        "coordinates": [
          74.78243386836385,
          13.351488062175415
        ]
      },
      "properties": {
        "id": "1add5fce-c1f9-4de7-aa26-305adfa3ac9a",
        "name": "Junction 23",
        "node_type": "road_junction",
        "capacity": 200.0,
        "current_load": 61.720583782494714,
        "failure_threshold": 1.0,
        "population_served": 0,
        "status": "operational"
      }
    },
    {
      "type": "Feature",
      "geometry": {
        "type": "Point",
        "coordinates": [
          74.79950834826607,
          13.338996481803061
        ]
      },
      "properties": {
        "id": "911a5026-6093-4b84-9ba9-cbc1e69ae3d8",
        "name": "Junction 24",
        "node_type": "road_junction",
        "capacity": 200.0,
        "current_load": 52.97072597146495,
        "failure_threshold": 1.0,
        "population_served": 0,
        "status": "operational"
      }
    },
    {
      "type": "Feature",
      "geometry": {
        "type": "Point",
        "coordinates": [
          74.80325418969916,
          13.33721633752507
        ]
      },
      "properties": {
        "id": "6d9917f0-4e8c-4426-acff-6bd51400649d",
        "name": "Junction 25",
        "node_type": "road_junction",
        "capacity": 200.0,
        "current_load": 69.17649002464621,
        "failure_threshold": 1.0,
        "population_served": 0,
        "status": "operational"
      }
    },
    {
      "type": "Feature",
      "geometry": {
        "type": "Point",
        "coordinates": [
          74.79583366307632,
          13.361174591888155
        ]
      },
      "properties": {
        "id": "7948a810-8713-43c9-a8ca-ddc7c9283907",
        "name": "Junction 26",
        "node_type": "road_junction",
        "capacity": 200.0,
        "current_load": 66.67599638507036,
        "failure_threshold": 1.0,
        "population_served": 0,
        "status": "operational"
      }
    },
    {
      "type": "Feature",
      "geometry": {
        "type": "Point",
        "coordinates": [
          74.78325090568838,
          13.364737487474214
        ]
      },
      "properties": {
        "id": "b70d554d-2367-4e5d-8508-9b01318a2a5d",
        "name": "Junction 27",
        "node_type": "road_junction",
        "capacity": 200.0,
        "current_load": 68.90142351773235,
        "failure_threshold": 1.0,
        "population_served": 0,
        "status": "operational"
      }
    },
    {
      "type": "Feature",
      "geometry": {
        "type": "Point",
        "coordinates": [
          74.79050407377648,
          13.346837335370692
        ]
      },
      "properties": {
        "id": "9e3dfda0-20a8-4dcc-89b7-cabd4b14a65a",
        "name": "Junction 28",
        "node_type": "road_junction",
        "capacity": 200.0,
        "current_load": 63.65588952655669,
        "failure_threshold": 1.0,
        "population_served": 0,
        "status": "operational"
      }
    },
    {
      "type": "Feature",
      "geometry": {
        "type": "Point",
        "coordinates": [
          74.78274857179757,
          13.361504852467245
        ]
      },
      "properties": {
        "id": "83802ad3-d9a0-48d3-986e-4100f21c3745",
        "name": "Junction 29",
        "node_type": "road_junction",
        "capacity": 200.0,
        "current_load": 59.95139359664651,
        "failure_threshold": 1.0,
        "population_served": 0,
        "status": "operational"
      }
    },
    {
      "type": "Feature",
      "geometry": {
        "type": "Point",
        "coordinates": [
          74.78027251448468,
          13.339959761483154
        ]
      },
      "properties": {
        "id": "202531ab-7e77-4021-8d76-93fcae203ea8",
        "name": "Junction 30",
        "node_type": "road_junction",
        "capacity": 200.0,
        "current_load": 53.414672040028954,
        "failure_threshold": 1.0,
        "population_served": 0,
        "status": "operational"
      }
    },
    {
      "type": "Feature",
      "geometry": {
        "type": "Point",
        "coordinates": [
          74.80556147997216,
          13.354105944835675
        ]
      },
      "properties": {
        "id": "33235d7c-952c-457f-b6f9-9304412376c7",
        "name": "Junction 31",
        "node_type": "road_junction",
        "capacity": 200.0,
        "current_load": 62.46686120873971,
        "failure_threshold": 1.0,
        "population_served": 0,
        "status": "operational"
      }
    },
    {
      "type": "Feature",
      "geometry": {
        "type": "Point",
        "coordinates": [
          74.8041465831611,
          13.35141664690972
        ]
      },
      "properties": {
        "id": "570e7a56-9178-43b1-bf8f-e0cd92559b48",
        "name": "Junction 32",
        "node_type": "road_junction",
        "capacity": 200.0,
        "current_load": 64.21765358291692,
        "failure_threshold": 1.0,
        "population_served": 0,
        "status": "operational"
      }
    },
    {
      "type": "Feature",
      "geometry": {
        "type": "Point",
        "coordinates": [
          74.79330841513051,
          13.364457302338131
        ]
      },
      "properties": {
        "id": "c6e5bee3-ddd4-4cb8-aee3-0646f7b373ac",
        "name": "Junction 33",
        "node_type": "road_junction",
        "capacity": 200.0,
        "current_load": 62.94460921309224,
        "failure_threshold": 1.0,
        "population_served": 0,
        "status": "operational"
      }
    },
    {
      "type": "Feature",
      "geometry": {
        "type": "Point",
        "coordinates": [
          74.7829837101901,
          13.345030691806295
        ]
      },
      "properties": {
        "id": "ce5e4863-0517-4ea1-a599-c6a9fe17bb5d",
        "name": "Junction 34",
        "node_type": "road_junction",
        "capacity": 200.0,
        "current_load": 68.61913574322764,
        "failure_threshold": 1.0,
        "population_served": 0,
        "status": "operational"
      }
    },
    {
      "type": "Feature",
      "geometry": {
        "type": "Point",
        "coordinates": [
          74.78660204305963,
          13.352966870537053
        ]
      },
      "properties": {
        "id": "2316358f-eb16-4cbc-b0b1-edf043ba5a69",
        "name": "Junction 35",
        "node_type": "road_junction",
        "capacity": 200.0,
        "current_load": 62.817054568011955,
        "failure_threshold": 1.0,
        "population_served": 0,
        "status": "operational"
      }
    },
    {
      "type": "Feature",
      "geometry": {
        "type": "Point",
        "coordinates": [
          74.77683674619611,
          13.343968898827953
        ]
      },
      "properties": {
        "id": "a10f547b-ed22-481f-8f57-6b8a7d850b06",
        "name": "Junction 36",
        "node_type": "road_junction",
        "capacity": 200.0,
        "current_load": 50.40939660804566,
        "failure_threshold": 1.0,
        "population_served": 0,
        "status": "operational"
      }
    },
    {
      "type": "Feature",
      "geometry": {
        "type": "Point",
        "coordinates": [
          74.80654924634085,
          13.353137819754163
        ]
      },
      "properties": {
        "id": "e983efda-3429-4fe8-a8b0-20db8665f664",
        "name": "Junction 37",
        "node_type": "road_junction",
        "capacity": 200.0,
        "current_load": 67.65332721424888,
        "failure_threshold": 1.0,
        "population_served": 0,
        "status": "operational"
      }
    },
    {
      "type": "Feature",
      "geometry": {
        "type": "Point",
        "coordinates": [
          74.80512164912095,
          13.362265440975543
        ]
      },
      "properties": {
        "id": "f44a442b-fd20-448a-a461-0e310155c9dd",
        "name": "Junction 38",
        "node_type": "road_junction",
        "capacity": 200.0,
        "current_load": 63.22445837324481,
        "failure_threshold": 1.0,
        "population_served": 0,
        "status": "operational"
      }
    },
    {
      "type": "Feature",
      "geometry": {
        "type": "Point",
        "coordinates": [
          74.79896411511594,
          13.348768168441802
        ]
      },
      "properties": {
        "id": "d22a1345-2ab4-4441-b24d-8b6bdcc6d9ef",
        "name": "Junction 39",
        "node_type": "road_junction",
        "capacity": 200.0,
        "current_load": 60.66021821112734,
        "failure_threshold": 1.0,
        "population_served": 0,
        "status": "operational"
      }
    },
    {
      "type": "Feature",
      "geometry": {
        "type": "Point",
        "coordinates": [
          74.80310538011798,
          13.336163990079891
        ]
      },
      "properties": {
        "id": "2b810435-2735-4dbe-bb0f-b2c6eecc27d9",
        "name": "Junction 40",
        "node_type": "road_junction",
        "capacity": 200.0,
        "current_load": 53.74397566081076,
        "failure_threshold": 1.0,
        "population_served": 0,
        "status": "operational"
      }
    },
    {
      "type": "Feature",
      "geometry": {
        "type": "Point",
        "coordinates": [
          74.79197303937056,
          13.34185463204786
        ]
      },
      "properties": {
        "id": "1f871de8-5095-492c-8d9a-93c84cb461fc",
        "name": "Junction 41",
        "node_type": "road_junction",
        "capacity": 200.0,
        "current_load": 69.98486694399239,
        "failure_threshold": 1.0,
        "population_served": 0,
        "status": "operational"
      }
    },
    {
      "type": "Feature",
      "geometry": {
        "type": "Point",
        "coordinates": [
          74.80842961278057,
          13.345766269976304
        ]
      },
      "properties": {
        "id": "0e9057e8-a224-4b97-9700-afb7cf1ea7c4",
        "name": "Junction 42",
        "node_type": "road_junction",
        "capacity": 200.0,
        "current_load": 53.53924562421281,
        "failure_threshold": 1.0,
        "population_served": 0,
        "status": "operational"
      }
    },
    {
      "type": "Feature",
      "geometry": {
        "type": "Point",
        "coordinates": [
          74.79516363364881,
          13.336451944240784
        ]
      },
      "properties": {
        "id": "1c82770a-aa27-42c8-a060-e4599cb130e7",
        "name": "Junction 43",
        "node_type": "road_junction",
        "capacity": 200.0,
        "current_load": 60.54503706046975,
        "failure_threshold": 1.0,
        "population_served": 0,
        "status": "operational"
      }
    },
    {
      "type": "Feature",
      "geometry": {
        "type": "Point",
        "coordinates": [
          74.80504135152191,
          13.34783870838449
        ]
      },
      "properties": {
        "id": "d49fc966-ee16-4c0c-bdab-13fd91712387",
        "name": "Junction 44",
        "node_type": "road_junction",
        "capacity": 200.0,
        "current_load": 51.89132092116325,
        "failure_threshold": 1.0,
        "population_served": 0,
        "status": "operational"
      }
    },
    {
      "type": "Feature",
      "geometry": {
        "type": "Point",
        "coordinates": [
          74.79029963032075,
          13.35925478057845
        ]
      },
      "properties": {
        "id": "0a1fe1b9-20ce-40bc-979f-50e06c68af3e",
        "name": "Junction 45",
        "node_type": "road_junction",
        "capacity": 200.0,
        "current_load": 51.86239196041536,
        "failure_threshold": 1.0,
        "population_served": 0,
        "status": "operational"
      }
    },
    {
      "type": "Feature",
      "geometry": {
        "type": "Point",
        "coordinates": [
          74.80238204021344,
          13.343474334816142
        ]
      },
      "properties": {
        "id": "68420d93-595d-4d90-9977-1f0a1f03838f",
        "name": "Junction 46",
        "node_type": "road_junction",
        "capacity": 200.0,
        "current_load": 60.901203123228825,
        "failure_threshold": 1.0,
        "population_served": 0,
        "status": "operational"
      }
    },
    {
      "type": "Feature",
      "geometry": {
        "type": "Point",
        "coordinates": [
          74.77423888039624,
          13.36039730843633
        ]
      },
      "properties": {
        "id": "c6784c27-81d4-43b2-aecd-6041104fab62",
        "name": "Junction 47",
        "node_type": "road_junction",
        "capacity": 200.0,
        "current_load": 53.649029278933796,
        "failure_threshold": 1.0,
        "population_served": 0,
        "status": "operational"
      }
    },
    {
      "type": "Feature",
      "geometry": {
        "type": "Point",
        "coordinates": [
          74.78715525266078,
          13.35187981209241
        ]
      },
      "properties": {
        "id": "aab497cb-92b2-417e-bed8-0a6daa4eea1c",
        "name": "Junction 48",
        "node_type": "road_junction",
        "capacity": 200.0,
        "current_load": 57.03403451472559,
        "failure_threshold": 1.0,
        "population_served": 0,
        "status": "operational"
      }
    },
    {
      "type": "Feature",
      "geometry": {
        "type": "Point",
        "coordinates": [
          74.77318908904638,
          13.35430467479571
        ]
      },
      "properties": {
        "id": "1e2147a8-1f92-47db-afea-c226fd5d732c",
        "name": "Junction 49",
        "node_type": "road_junction",
        "capacity": 200.0,
        "current_load": 54.330848918809515,
        "failure_threshold": 1.0,
        "population_served": 0,
        "status": "operational"
      }
    },
    {
      "type": "Feature",
      "geometry": {
        "type": "Point",
        "coordinates": [
          74.80624352898808,
          13.347001331183787
        ]
      },
      "properties": {
        "id": "66f95da4-e9c5-4426-a9bc-0af09e877a73",
        "name": "Junction 50",
        "node_type": "road_junction",
        "capacity": 200.0,
        "current_load": 65.0249248099389,
        "failure_threshold": 1.0,
        "population_served": 0,
        "status": "operational"
      }
    },
    {
      "type": "Feature",
      "geometry": {
        "type": "Point",
        "coordinates": [
          74.78237226243564,
          13.334520495442895
        ]
      },
      "properties": {
        "id": "202748eb-aa02-4ba7-9bbf-cd58d7deecf2",
        "name": "Junction 51",
        "node_type": "road_junction",
        "capacity": 200.0,
        "current_load": 61.256627778425916,
        "failure_threshold": 1.0,
        "population_served": 0,
        "status": "operational"
      }
    },
    {
      "type": "Feature",
      "geometry": {
        "type": "Point",
        "coordinates": [
          74.80272520010644,
          13.361011222067779
        ]
      },
      "properties": {
        "id": "9fa20a24-fc08-47a3-a0a8-ff3afeeff60b",
        "name": "Junction 52",
        "node_type": "road_junction",
        "capacity": 200.0,
        "current_load": 65.63080568070899,
        "failure_threshold": 1.0,
        "population_served": 0,
        "status": "operational"
      }
    },
    {
      "type": "Feature",
      "geometry": {
        "type": "Point",
        "coordinates": [
          74.79255022935762,
          13.344283945752498
        ]
      },
      "properties": {
        "id": "2a493d47-d438-4bbf-8da9-b65446abee41",
        "name": "Junction 53",
        "node_type": "road_junction",
        "capacity": 200.0,
        "current_load": 52.1207147366624,
        "failure_threshold": 1.0,
        "population_served": 0,
        "status": "operational"
      }
    },
    {
      "type": "Feature",
      "geometry": {
        "type": "Point",
        "coordinates": [
          74.79405386541465,
          13.346956238816778
        ]
      },
      "properties": {
        "id": "7c3f821b-5c35-40d3-9a47-0aae0fc16a22",
        "name": "Junction 54",
        "node_type": "road_junction",
        "capacity": 200.0,
        "current_load": 66.04634198330271,
        "failure_threshold": 1.0,
        "population_served": 0,
        "status": "operational"
      }
    },
    {
      "type": "Feature",
      "geometry": {
        "type": "Point",
        "coordinates": [
          74.80045479937904,
          13.362618909129818
        ]
      },
      "properties": {
        "id": "2b8cf77d-a5a1-46fe-80f7-492199056504",
        "name": "Junction 55",
        "node_type": "road_junction",
        "capacity": 200.0,
        "current_load": 56.271018129108256,
        "failure_threshold": 1.0,
        "population_served": 0,
        "status": "operational"
      }
    },
    {
      "type": "Feature",
      "geometry": {
        "type": "Point",
        "coordinates": [
          74.79629497596657,
          13.364117394197205
        ]
      },
      "properties": {
        "id": "288cc017-094b-40e9-9352-e5d66ba26b1f",
        "name": "Junction 56",
        "node_type": "road_junction",
        "capacity": 200.0,
        "current_load": 68.6363582781854,
        "failure_threshold": 1.0,
        "population_served": 0,
        "status": "operational"
      }
    },
    {
      "type": "Feature",
      "geometry": {
        "type": "Point",
        "coordinates": [
          74.79843018682931,
          13.349690911378755
        ]
      },
      "properties": {
        "id": "758fe8e1-e420-4516-a9b7-0432d357caf6",
        "name": "Junction 57",
        "node_type": "road_junction",
        "capacity": 200.0,
        "current_load": 50.2774106579486,
        "failure_threshold": 1.0,
        "population_served": 0,
        "status": "operational"
      }
    },
    {
      "type": "Feature",
      "geometry": {
        "type": "Point",
        "coordinates": [
          74.77900324876157,
          13.365391934913225
        ]
      },
      "properties": {
        "id": "339d8488-dc67-4cea-bf94-a8701484efb3",
        "name": "Junction 58",
        "node_type": "road_junction",
        "capacity": 200.0,
        "current_load": 55.14084062196736,
        "failure_threshold": 1.0,
        "population_served": 0,
        "status": "operational"
      }
    },
    {
      "type": "Feature",
      "geometry": {
        "type": "Point",
        "coordinates": [
          74.79727069514477,
          13.368390888935314
        ]
      },
      "properties": {
        "id": "657c29b4-1c3f-4407-b2e9-1ea876da6c3d",
        "name": "Junction 59",
        "node_type": "road_junction",
        "capacity": 200.0,
        "current_load": 54.70450759276415,
        "failure_threshold": 1.0,
        "population_served": 0,
        "status": "operational"
      }
    },
    {
      "type": "Feature",
      "geometry": {
        "type": "Point",
        "coordinates": [
          74.79650238071044,
          13.359252966909619
        ]
      },
      "properties": {
        "id": "6fce2208-519b-4b5d-af37-dd44aafe4872",
        "name": "Junction 60",
        "node_type": "road_junction",
        "capacity": 200.0,
        "current_load": 61.22356512792126,
        "failure_threshold": 1.0,
        "population_served": 0,
        "status": "operational"
      }
    },
    {
      "type": "Feature",
      "geometry": {
        "type": "Point",
        "coordinates": [
          74.77370408604902,
          13.362424329947707
        ]
      },
      "properties": {
        "id": "4f356a79-9aa8-455c-ba88-f0708829a54b",
        "name": "Junction 61",
        "node_type": "road_junction",
        "capacity": 200.0,
        "current_load": 56.29948866065693,
        "failure_threshold": 1.0,
        "population_served": 0,
        "status": "operational"
      }
    },
    {
      "type": "Feature",
      "geometry": {
        "type": "Point",
        "coordinates": [
          74.77992640337746,
          13.34049342667214
        ]
      },
      "properties": {
        "id": "a01ec8f2-595e-4fad-a409-6da4367a3ffa",
        "name": "Junction 62",
        "node_type": "road_junction",
        "capacity": 200.0,
        "current_load": 64.28432592975271,
        "failure_threshold": 1.0,
        "population_served": 0,
        "status": "operational"
      }
    },
    {
      "type": "Feature",
      "geometry": {
        "type": "Point",
        "coordinates": [
          74.79231849580103,
          13.346786174233818
        ]
      },
      "properties": {
        "id": "2f88b1c2-c4ac-4f3b-a13b-3190976908e0",
        "name": "Junction 63",
        "node_type": "road_junction",
        "capacity": 200.0,
        "current_load": 62.1557130240852,
        "failure_threshold": 1.0,
        "population_served": 0,
        "status": "operational"
      }
    },
    {
      "type": "Feature",
      "geometry": {
        "type": "Point",
        "coordinates": [
          74.79724615888327,
          13.336216033030125
        ]
      },
      "properties": {
        "id": "663ffeaa-68a1-441c-b85d-cfb68bde3c2c",
        "name": "Junction 64",
        "node_type": "road_junction",
        "capacity": 200.0,
        "current_load": 63.51838542199182,
        "failure_threshold": 1.0,
        "population_served": 0,
        "status": "operational"
      }
    },
    {
      "type": "Feature",
      "geometry": {
        "type": "Point",
        "coordinates": [
          74.79515935229594,
          13.345138728511419
        ]
      },
      "properties": {
        "id": "0299f3d9-5998-4bf3-8f73-2c8d36e928ef",
        "name": "Junction 65",
        "node_type": "road_junction",
        "capacity": 200.0,
        "current_load": 60.02523566505368,
        "failure_threshold": 1.0,
        "population_served": 0,
        "status": "operational"
      }
    },
    {
      "type": "Feature",
      "geometry": {
        "type": "Point",
        "coordinates": [
          74.81072725542352,
          13.349804325486533
        ]
      },
      "properties": {
        "id": "a9129a64-d5f2-4b9e-a3eb-027d06bf80ce",
        "name": "Junction 66",
        "node_type": "road_junction",
        "capacity": 200.0,
        "current_load": 55.83762779043073,
        "failure_threshold": 1.0,
        "population_served": 0,
        "status": "operational"
      }
    },
    {
      "type": "Feature",
      "geometry": {
        "type": "Point",
        "coordinates": [
          74.79672330193148,
          13.366903431511288
        ]
      },
      "properties": {
        "id": "4ec3a126-c7fa-4ce6-9a24-a260e4f3481c",
        "name": "Junction 67",
        "node_type": "road_junction",
        "capacity": 200.0,
        "current_load": 64.30345362972339,
        "failure_threshold": 1.0,
        "population_served": 0,
        "status": "operational"
      }
    },
    {
      "type": "Feature",
      "geometry": {
        "type": "Point",
        "coordinates": [
          74.80929946218733,
          13.346322175664588
        ]
      },
      "properties": {
        "id": "8039086b-fa43-4b26-a5b5-ccbaab51edda",
        "name": "Junction 68",
        "node_type": "road_junction",
        "capacity": 200.0,
        "current_load": 56.610961003535344,
        "failure_threshold": 1.0,
        "population_served": 0,
        "status": "operational"
      }
    },
    {
      "type": "Feature",
      "geometry": {
        "type": "Point",
        "coordinates": [
          74.77222241597586,
          13.352047144068363
        ]
      },
      "properties": {
        "id": "83ffdc53-0672-4d51-b7c2-e9604ec2fefb",
        "name": "Junction 69",
        "node_type": "road_junction",
        "capacity": 200.0,
        "current_load": 68.31722529565025,
        "failure_threshold": 1.0,
        "population_served": 0,
        "status": "operational"
      }
    },
    {
      "type": "Feature",
      "geometry": {
        "type": "Point",
        "coordinates": [
          74.79572357853795,
          13.340562674522333
        ]
      },
      "properties": {
        "id": "38292729-b275-4d15-b2bf-701f2bc9bbfd",
        "name": "Junction 70",
        "node_type": "road_junction",
        "capacity": 200.0,
        "current_load": 61.71212165101774,
        "failure_threshold": 1.0,
        "population_served": 0,
        "status": "operational"
      }
    },
    {
      "type": "Feature",
      "geometry": {
        "type": "Point",
        "coordinates": [
          74.78919820758111,
          13.352743161191505
        ]
      },
      "properties": {
        "id": "50c31ac7-2ab9-47c8-82d6-a4bdbb0cf328",
        "name": "Junction 71",
        "node_type": "road_junction",
        "capacity": 200.0,
        "current_load": 53.94896590126497,
        "failure_threshold": 1.0,
        "population_served": 0,
        "status": "operational"
      }
    },
    {
      "type": "Feature",
      "geometry": {
        "type": "Point",
        "coordinates": [
          74.78991047991434,
          13.354738226667447
        ]
      },
      "properties": {
        "id": "f6c26dac-24b2-41fe-8599-f9b032d76289",
        "name": "Junction 72",
        "node_type": "road_junction",
        "capacity": 200.0,
        "current_load": 53.24248278423701,
        "failure_threshold": 1.0,
        "population_served": 0,
        "status": "operational"
      }
    },
    {
      "type": "Feature",
      "geometry": {
        "type": "Point",
        "coordinates": [
          74.79170897274864,
          13.356813591170575
        ]
      },
      "properties": {
        "id": "31f9b80f-5630-48cb-be2d-98e33010fe71",
        "name": "Junction 73",
        "node_type": "road_junction",
        "capacity": 200.0,
        "current_load": 60.45167779237637,
        "failure_threshold": 1.0,
        "population_served": 0,
        "status": "operational"
      }
    },
    {
      "type": "Feature",
      "geometry": {
        "type": "Point",
        "coordinates": [
          74.78729197862666,
          13.365235795259208
        ]
      },
      "properties": {
        "id": "928c9a8a-f610-428f-9961-e27a79cd9c81",
        "name": "Junction 74",
        "node_type": "road_junction",
        "capacity": 200.0,
        "current_load": 56.04482338261518,
        "failure_threshold": 1.0,
        "population_served": 0,
        "status": "operational"
      }
    },
    {
      "type": "Feature",
      "geometry": {
        "type": "Point",
        "coordinates": [
          74.79975649762719,
          13.359141585280257
        ]
      },
      "properties": {
        "id": "4f38afc3-b34e-4563-a67c-c9434ef74029",
        "name": "Junction 75",
        "node_type": "road_junction",
        "capacity": 200.0,
        "current_load": 58.30596199394851,
        "failure_threshold": 1.0,
        "population_served": 0,
        "status": "operational"
      }
    },
    {
      "type": "Feature",
      "geometry": {
        "type": "Point",
        "coordinates": [
          74.77728252068562,
          13.352043307684509
        ]
      },
      "properties": {
        "id": "7f48fe5d-ac73-489f-9f87-9430b9932258",
        "name": "Junction 76",
        "node_type": "road_junction",
        "capacity": 200.0,
        "current_load": 63.251860621506765,
        "failure_threshold": 1.0,
        "population_served": 0,
        "status": "operational"
      }
    },
    {
      "type": "Feature",
      "geometry": {
        "type": "Point",
        "coordinates": [
          74.80689416823145,
          13.357147389195957
        ]
      },
      "properties": {
        "id": "12b49fc5-a6e0-4fb5-af67-bd50079cc167",
        "name": "Junction 77",
        "node_type": "road_junction",
        "capacity": 200.0,
        "current_load": 50.56834245645444,
        "failure_threshold": 1.0,
        "population_served": 0,
        "status": "operational"
      }
    },
    {
      "type": "Feature",
      "geometry": {
        "type": "Point",
        "coordinates": [
          74.78543311092884,
          13.333629622308722
        ]
      },
      "properties": {
        "id": "10e1a9d0-44b9-44ca-8e8a-61fcb225db95",
        "name": "Junction 78",
        "node_type": "road_junction",
        "capacity": 200.0,
        "current_load": 61.097962915429235,
        "failure_threshold": 1.0,
        "population_served": 0,
        "status": "operational"
      }
    },
    {
      "type": "Feature",
      "geometry": {
        "type": "Point",
        "coordinates": [
          74.77071958180949,
          13.35429933224347
        ]
      },
      "properties": {
        "id": "0664035b-4c20-42d8-a31d-8104cd513e76",
        "name": "Junction 79",
        "node_type": "road_junction",
        "capacity": 200.0,
        "current_load": 54.56511587252646,
        "failure_threshold": 1.0,
        "population_served": 0,
        "status": "operational"
      }
    },
    {
      "type": "Feature",
      "geometry": {
        "type": "Point",
        "coordinates": [
          74.78930829921742,
          13.347509146552659
        ]
      },
      "properties": {
        "id": "bc7422d1-421e-4a95-96f8-6eaff8d127e8",
        "name": "Junction 80",
        "node_type": "road_junction",
        "capacity": 200.0,
        "current_load": 58.357595393630284,
        "failure_threshold": 1.0,
        "population_served": 0,
        "status": "operational"
      }
    },
    {
      "type": "Feature",
      "geometry": {
        "type": "Point",
        "coordinates": [
          74.80573018544979,
          13.362607828989765
        ]
      },
      "properties": {
        "id": "1e8f1a2f-b611-4059-974e-9ef94c495862",
        "name": "Junction 81",
        "node_type": "road_junction",
        "capacity": 200.0,
        "current_load": 62.5355550041274,
        "failure_threshold": 1.0,
        "population_served": 0,
        "status": "operational"
      }
    },
    {
      "type": "Feature",
      "geometry": {
        "type": "Point",
        "coordinates": [
          74.79567108585462,
          13.352570515868287
        ]
      },
      "properties": {
        "id": "efb68a2b-a593-4306-8f98-3a65e66ba1f7",
        "name": "Junction 82",
        "node_type": "road_junction",
        "capacity": 200.0,
        "current_load": 50.760176278682536,
        "failure_threshold": 1.0,
        "population_served": 0,
        "status": "operational"
      }
    },
    {
      "type": "Feature",
      "geometry": {
        "type": "Point",
        "coordinates": [
          74.77251904599483,
          13.358323284345799
        ]
      },
      "properties": {
        "id": "3a494695-478e-4203-ab32-70fbe7bce8ae",
        "name": "Junction 83",
        "node_type": "road_junction",
        "capacity": 200.0,
        "current_load": 66.39726657647233,
        "failure_threshold": 1.0,
        "population_served": 0,
        "status": "operational"
      }
    },
    {
      "type": "Feature",
      "geometry": {
        "type": "Point",
        "coordinates": [
          74.78842938941185,
          13.338422101689735
        ]
      },
      "properties": {
        "id": "5c2342d5-2205-4470-a50b-25a321ed89fd",
        "name": "Junction 84",
        "node_type": "road_junction",
        "capacity": 200.0,
        "current_load": 64.86184288822083,
        "failure_threshold": 1.0,
        "population_served": 0,
        "status": "operational"
      }
    },
    {
      "type": "Feature",
      "geometry": {
        "type": "Point",
        "coordinates": [
          74.78580550920898,
          13.352558171913568
        ]
      },
      "properties": {
        "id": "3438d6a6-a3d2-431a-96df-03325ebb9dc3",
        "name": "Junction 85",
        "node_type": "road_junction",
        "capacity": 200.0,
        "current_load": 62.5571630862547,
        "failure_threshold": 1.0,
        "population_served": 0,
        "status": "operational"
      }
    },
    {
      "type": "Feature",
      "geometry": {
        "type": "Point",
        "coordinates": [
          74.79370612162832,
          13.359201317625551
        ]
      },
      "properties": {
        "id": "782b61b6-ed67-48ca-81f7-6dc094216333",
        "name": "Junction 86",
        "node_type": "road_junction",
        "capacity": 200.0,
        "current_load": 54.436773460975765,
        "failure_threshold": 1.0,
        "population_served": 0,
        "status": "operational"
      }
    },
    {
      "type": "Feature",
      "geometry": {
        "type": "Point",
        "coordinates": [
          74.80216307219666,
          13.358322371380972
        ]
      },
      "properties": {
        "id": "27fbb8b6-a747-4406-8186-e5f0d2a2fa7b",
        "name": "Junction 87",
        "node_type": "road_junction",
        "capacity": 200.0,
        "current_load": 64.90385426670986,
        "failure_threshold": 1.0,
        "population_served": 0,
        "status": "operational"
      }
    },
    {
      "type": "Feature",
      "geometry": {
        "type": "Point",
        "coordinates": [
          74.7710954986428,
          13.34504655630756
        ]
      },
      "properties": {
        "id": "f03c7eec-aacf-4e7a-b10e-94c2379b4a72",
        "name": "Junction 88",
        "node_type": "road_junction",
        "capacity": 200.0,
        "current_load": 57.198623411506404,
        "failure_threshold": 1.0,
        "population_served": 0,
        "status": "operational"
      }
    },
    {
      "type": "Feature",
      "geometry": {
        "type": "Point",
        "coordinates": [
          74.78295509284537,
          13.333536435325609
        ]
      },
      "properties": {
        "id": "64b7be3d-8639-47ef-814d-a2e87916a943",
        "name": "Junction 89",
        "node_type": "road_junction",
        "capacity": 200.0,
        "current_load": 55.51523899192928,
        "failure_threshold": 1.0,
        "population_served": 0,
        "status": "operational"
      }
    },
    {
      "type": "Feature",
      "geometry": {
        "type": "Point",
        "coordinates": [
          74.80380398786002,
          13.336898447629855
        ]
      },
      "properties": {
        "id": "b0a99fd2-3a3a-4152-b663-a72a51be7551",
        "name": "Junction 90",
        "node_type": "road_junction",
        "capacity": 200.0,
        "current_load": 59.185354506524114,
        "failure_threshold": 1.0,
        "population_served": 0,
        "status": "operational"
      }
    },
    {
      "type": "Feature",
      "geometry": {
        "type": "Point",
        "coordinates": [
          74.77684022808893,
          13.355093631700667
        ]
      },
      "properties": {
        "id": "5413f2d0-c30c-404b-9d39-293fbe58c904",
        "name": "Junction 91",
        "node_type": "road_junction",
        "capacity": 200.0,
        "current_load": 67.94044551083877,
        "failure_threshold": 1.0,
        "population_served": 0,
        "status": "operational"
      }
    },
    {
      "type": "Feature",
      "geometry": {
        "type": "Point",
        "coordinates": [
          74.80593373557662,
          13.343748508215192
        ]
      },
      "properties": {
        "id": "964b90bf-dc02-4c4d-b955-810669d4e304",
        "name": "Junction 92",
        "node_type": "road_junction",
        "capacity": 200.0,
        "current_load": 53.16588455856093,
        "failure_threshold": 1.0,
        "population_served": 0,
        "status": "operational"
      }
    },
    {
      "type": "Feature",
      "geometry": {
        "type": "Point",
        "coordinates": [
          74.79127832402969,
          13.337243311559236
        ]
      },
      "properties": {
        "id": "7f04b229-7969-44b5-8dc7-97c0873dac2b",
        "name": "Junction 93",
        "node_type": "road_junction",
        "capacity": 200.0,
        "current_load": 50.10623618221915,
        "failure_threshold": 1.0,
        "population_served": 0,
        "status": "operational"
      }
    },
    {
      "type": "Feature",
      "geometry": {
        "type": "Point",
        "coordinates": [
          74.78654962210203,
          13.361444414786483
        ]
      },
      "properties": {
        "id": "722bb383-23bc-4a77-80af-04b0b75a676d",
        "name": "Junction 94",
        "node_type": "road_junction",
        "capacity": 200.0,
        "current_load": 60.464553490631076,
        "failure_threshold": 1.0,
        "population_served": 0,
        "status": "operational"
      }
    },
    {
      "type": "Feature",
      "geometry": {
        "type": "Point",
        "coordinates": [
          74.79313314135743,
          13.362426859270867
        ]
      },
      "properties": {
        "id": "bd997f06-8fcd-46a0-834f-3f3364a2fec5",
        "name": "Junction 95",
        "node_type": "road_junction",
        "capacity": 200.0,
        "current_load": 53.45145524802913,
        "failure_threshold": 1.0,
        "population_served": 0,
        "status": "operational"
      }
    },
    {
      "type": "Feature",
      "geometry": {
        "type": "Point",
        "coordinates": [
          74.786676854172,
          13.339531099100888
        ]
      },
      "properties": {
        "id": "b12dc5c6-87c2-49d6-8b4b-ea4ea521595c",
        "name": "Junction 96",
        "node_type": "road_junction",
        "capacity": 200.0,
        "current_load": 55.300297310644474,
        "failure_threshold": 1.0,
        "population_served": 0,
        "status": "operational"
      }
    },
    {
      "type": "Feature",
      "geometry": {
        "type": "Point",
        "coordinates": [
          74.8005030104202,
          13.363631929671918
        ]
      },
      "properties": {
        "id": "b0ac9d81-4d84-4e9d-a677-4ab4cbf98ef1",
        "name": "Junction 97",
        "node_type": "road_junction",
        "capacity": 200.0,
        "current_load": 68.07012722169644,
        "failure_threshold": 1.0,
        "population_served": 0,
        "status": "operational"
      }
    },
    {
      "type": "Feature",
      "geometry": {
        "type": "Point",
        "coordinates": [
          74.77758110818885,
          13.35857181923905
        ]
      },
      "properties": {
        "id": "63557ad9-41ce-46cf-a27f-0210f24c42aa",
        "name": "Junction 98",
        "node_type": "road_junction",
        "capacity": 200.0,
        "current_load": 63.91200461721245,
        "failure_threshold": 1.0,
        "population_served": 0,
        "status": "operational"
      }
    },
    {
      "type": "Feature",
      "geometry": {
        "type": "Point",
        "coordinates": [
          74.79321964082494,
          13.360643395543839
        ]
      },
      "properties": {
        "id": "448fa558-aeed-40dc-a4ff-1d4c7dc2840f",
        "name": "Junction 99",
        "node_type": "road_junction",
        "capacity": 200.0,
        "current_load": 57.865520623413005,
        "failure_threshold": 1.0,
        "population_served": 0,
        "status": "operational"
      }
    },
    {
      "type": "Feature",
      "geometry": {
        "type": "Point",
        "coordinates": [
          74.78721467979582,
          13.364441455664098
        ]
      },
      "properties": {
        "id": "f8a30c29-e77f-4c8b-991d-666decb5aadb",
        "name": "Junction 100",
        "node_type": "road_junction",
        "capacity": 200.0,
        "current_load": 66.2409340804885,
        "failure_threshold": 1.0,
        "population_served": 0,
        "status": "operational"
      }
    }
  ]
}
